HULIANWANG DIGUI-33     
1 64286U 25121D   26074.23878538  .00000051  00000+0  85467-4 0  9999
2 64286  86.4985  45.2865 0002009  73.1333 287.0022 13.24425958 37722
HULIANWANG DIGUI-34     
1 64287U 25121E   26074.23128994  .00000051  00000+0  85510-4 0  9993
2 64287  86.4963  45.2189 0002088  67.5633 292.5722 13.24424837 37728
HULIANWANG DIGUI-35     
1 64956U 25159A   26074.27335310  .00000033  00000+0  41933-4 0  9994
2 64956  86.4966 314.1809 0001239  83.1603 276.9672 13.24417927 30690
HULIANWANG DIGUI-36     
1 64957U 25159B   26074.26558617  .00000029  00000+0  34384-4 0  9998
2 64957  86.4986 314.2231 0001294  80.0768 280.0512 13.24420569 30697
HULIANWANG DIGUI-37     
1 64958U 25159C   26074.25804685  .00000034  00000+0  44023-4 0  9994
2 64958  86.4928 314.0820 0001324  75.7691 284.3590 13.24420165 30691
HULIANWANG DIGUI-38     
1 64959U 25159D   26074.25051089  .00000034  00000+0  45252-4 0  9992
2 64959  86.4987 314.2159 0001346  78.1520 281.9765 13.24420326 30692
HULIANWANG DIGUI-39     
1 64960U 25159E   26074.24294224  .00000049  00000+0  79765-4 0  9995
2 64960  86.4962 314.1559 0001370  79.3047 280.8241 13.24420514 30690
HULIANWANG DIGUI-40     
1 65043U 25162A   26074.26719648 -.00000097  00000+0  57336-4 0  9990
2 65043  49.9984 242.8205 0001036 110.5091 249.5893 13.29333067 30856
HULIANWANG DIGUI-41     
1 65044U 25162B   26074.25884159 -.00000094  00000+0  64019-4 0  9993
2 65044  49.9993 242.7951 0001080 109.5247 250.5741 13.29333491 30860
HULIANWANG DIGUI-42     
1 65045U 25162C   26074.25046306 -.00000092  00000+0  68748-4 0  9999
2 65045  49.9959 242.6872 0001012 111.4480 248.6500 13.29332885 30867
HULIANWANG DIGUI-43     
1 65046U 25162D   26074.24208184 -.00000087  00000+0  80614-4 0  9993
2 65046  49.9976 242.6768 0001009 109.9493 250.1488 13.29333949 30868
HULIANWANG DIGUI-44     
1 65047U 25162E   26074.30856117 -.00000087  00000+0  78771-4 0  9997
2 65047  50.0003 242.4116 0000684  24.9845 335.1060 13.29341414 30881
HULIANWANG DIGUI-45     
1 65048U 25162F   26074.30059233 -.00000085  00000+0  84093-4 0  9994
2 65048  50.0032 242.4261 0001068 109.2964 250.8024 13.29333760 30878
HULIANWANG DIGUI-46     
1 65049U 25162G   26074.29223840 -.00000082  00000+0  90228-4 0  9994
2 65049  50.0051 242.4167 0001073 110.6740 249.4247 13.29333672 30872
HULIANWANG DIGUI-47     
1 65050U 25162H   26074.28388113 -.00000075  00000+0  10542-3 0  9992
2 65050  50.0016 242.3085 0001058 112.3109 247.7875 13.29333618 30872
HULIANWANG DIGUI-48     
1 65051U 25162J   26074.27555380 -.00000085  00000+0  83222-4 0  9991
2 65051  50.0025 242.2831 0001035 111.2612 248.8371 13.29333084 30873
