[{"OBJECT_NAME":"HULIANWANG DIGUI-33","OBJECT_ID":"2025-121D","EPOCH":"2026-03-15T05:43:51.056832","MEAN_MOTION":13.24425958,"ECCENTRICITY":0.00020096,"INCLINATION":86.4985,"RA_OF_ASC_NODE":45.2865,"ARG_OF_PERICENTER":73.1333,"MEAN_ANOMALY":287.0022,"EPHEMERIS_TYPE":0,"CLASSIFICATION_TYPE":"U","NORAD_CAT_ID":64286,"ELEMENT_SET_NO":999,"REV_AT_EPOCH":3772,"BSTAR":8.5467496e-5,"MEAN_MOTION_DOT":5.1e-7,"MEAN_MOTION_DDOT":0},{"OBJECT_NAME":"HULIANWANG DIGUI-34","OBJECT_ID":"2025-121E","EPOCH":"2026-03-15T05:33:03.450816","MEAN_MOTION":13.24424837,"ECCENTRICITY":0.00020885,"INCLINATION":86.4963,"RA_OF_ASC_NODE":45.2189,"ARG_OF_PERICENTER":67.5633,"MEAN_ANOMALY":292.5722,"EPHEMERIS_TYPE":0,"CLASSIFICATION_TYPE":"U","NORAD_CAT_ID":64287,"ELEMENT_SET_NO":999,"REV_AT_EPOCH":3772,"BSTAR":8.5509742e-5,"MEAN_MOTION_DOT":5.1e-7,"MEAN_MOTION_DDOT":0},{"OBJECT_NAME":"HULIANWANG DIGUI-35","OBJECT_ID":"2025-159A","EPOCH":"2026-03-15T06:33:37.707840","MEAN_MOTION":13.24417927,"ECCENTRICITY":0.00012396,"INCLINATION":86.4966,"RA_OF_ASC_NODE":314.1809,"ARG_OF_PERICENTER":83.1603,"MEAN_ANOMALY":276.9672,"EPHEMERIS_TYPE":0,"CLASSIFICATION_TYPE":"U","NORAD_CAT_ID":64956,"ELEMENT_SET_NO":999,"REV_AT_EPOCH":3069,"BSTAR":4.1932993e-5,"MEAN_MOTION_DOT":3.3e-7,"MEAN_MOTION_DDOT":0},{"OBJECT_NAME":"HULIANWANG DIGUI-36","OBJECT_ID":"2025-159B","EPOCH":"2026-03-15T06:22:26.645088","MEAN_MOTION":13.24420569,"ECCENTRICITY":0.00012945,"INCLINATION":86.4986,"RA_OF_ASC_NODE":314.2231,"ARG_OF_PERICENTER":80.0768,"MEAN_ANOMALY":280.0512,"EPHEMERIS_TYPE":0,"CLASSIFICATION_TYPE":"U","NORAD_CAT_ID":64957,"ELEMENT_SET_NO":999,"REV_AT_EPOCH":3069,"BSTAR":3.4383986e-5,"MEAN_MOTION_DOT":2.9e-7,"MEAN_MOTION_DDOT":0},{"OBJECT_NAME":"HULIANWANG DIGUI-37","OBJECT_ID":"2025-159C","EPOCH":"2026-03-15T06:11:35.247840","MEAN_MOTION":13.24420165,"ECCENTRICITY":0.00013243,"INCLINATION":86.4928,"RA_OF_ASC_NODE":314.082,"ARG_OF_PERICENTER":75.7691,"MEAN_ANOMALY":284.359,"EPHEMERIS_TYPE":0,"CLASSIFICATION_TYPE":"U","NORAD_CAT_ID":64958,"ELEMENT_SET_NO":999,"REV_AT_EPOCH":3069,"BSTAR":4.4022998e-5,"MEAN_MOTION_DOT":3.4e-7,"MEAN_MOTION_DDOT":0},{"OBJECT_NAME":"HULIANWANG DIGUI-38","OBJECT_ID":"2025-159D","EPOCH":"2026-03-15T06:00:44.140896","MEAN_MOTION":13.24420326,"ECCENTRICITY":0.00013468,"INCLINATION":86.4987,"RA_OF_ASC_NODE":314.2159,"ARG_OF_PERICENTER":78.152,"MEAN_ANOMALY":281.9765,"EPHEMERIS_TYPE":0,"CLASSIFICATION_TYPE":"U","NORAD_CAT_ID":64959,"ELEMENT_SET_NO":999,"REV_AT_EPOCH":3069,"BSTAR":4.5252451e-5,"MEAN_MOTION_DOT":3.4e-7,"MEAN_MOTION_DDOT":0},{"OBJECT_NAME":"HULIANWANG DIGUI-39","OBJECT_ID":"2025-159E","EPOCH":"2026-03-15T05:49:50.209536","MEAN_MOTION":13.24420514,"ECCENTRICITY":0.00013702,"INCLINATION":86.4962,"RA_OF_ASC_NODE":314.1559,"ARG_OF_PERICENTER":79.3047,"MEAN_ANOMALY":280.8241,"EPHEMERIS_TYPE":0,"CLASSIFICATION_TYPE":"U","NORAD_CAT_ID":64960,"ELEMENT_SET_NO":999,"REV_AT_EPOCH":3069,"BSTAR":7.9764854e-5,"MEAN_MOTION_DOT":4.9e-7,"MEAN_MOTION_DDOT":0},{"OBJECT_NAME":"HULIANWANG DIGUI-40","OBJECT_ID":"2025-162A","EPOCH":"2026-03-15T06:24:45.775872","MEAN_MOTION":13.29333067,"ECCENTRICITY":0.00010369,"INCLINATION":49.9984,"RA_OF_ASC_NODE":242.8205,"ARG_OF_PERICENTER":110.5091,"MEAN_ANOMALY":249.5893,"EPHEMERIS_TYPE":0,"CLASSIFICATION_TYPE":"U","NORAD_CAT_ID":65043,"ELEMENT_SET_NO":999,"REV_AT_EPOCH":3085,"BSTAR":5.7336391e-5,"MEAN_MOTION_DOT":-9.7e-7,"MEAN_MOTION_DDOT":0},{"OBJECT_NAME":"HULIANWANG DIGUI-41","OBJECT_ID":"2025-162B","EPOCH":"2026-03-15T06:12:43.913376","MEAN_MOTION":13.29333491,"ECCENTRICITY":0.00010801,"INCLINATION":49.9993,"RA_OF_ASC_NODE":242.7951,"ARG_OF_PERICENTER":109.5247,"MEAN_ANOMALY":250.5741,"EPHEMERIS_TYPE":0,"CLASSIFICATION_TYPE":"U","NORAD_CAT_ID":65044,"ELEMENT_SET_NO":999,"REV_AT_EPOCH":3086,"BSTAR":6.4019173e-5,"MEAN_MOTION_DOT":-9.4e-7,"MEAN_MOTION_DDOT":0},{"OBJECT_NAME":"HULIANWANG DIGUI-42","OBJECT_ID":"2025-162C","EPOCH":"2026-03-15T06:00:40.008384","MEAN_MOTION":13.29332885,"ECCENTRICITY":0.00010122,"INCLINATION":49.9959,"RA_OF_ASC_NODE":242.6872,"ARG_OF_PERICENTER":111.448,"MEAN_ANOMALY":248.65,"EPHEMERIS_TYPE":0,"CLASSIFICATION_TYPE":"U","NORAD_CAT_ID":65045,"ELEMENT_SET_NO":999,"REV_AT_EPOCH":3086,"BSTAR":6.8748285e-5,"MEAN_MOTION_DOT":-9.2e-7,"MEAN_MOTION_DDOT":0},{"OBJECT_NAME":"HULIANWANG DIGUI-43","OBJECT_ID":"2025-162D","EPOCH":"2026-03-15T05:48:35.870976","MEAN_MOTION":13.29333949,"ECCENTRICITY":0.00010094,"INCLINATION":49.9976,"RA_OF_ASC_NODE":242.6768,"ARG_OF_PERICENTER":109.9493,"MEAN_ANOMALY":250.1488,"EPHEMERIS_TYPE":0,"CLASSIFICATION_TYPE":"U","NORAD_CAT_ID":65046,"ELEMENT_SET_NO":999,"REV_AT_EPOCH":3086,"BSTAR":8.0614192e-5,"MEAN_MOTION_DOT":-8.7e-7,"MEAN_MOTION_DDOT":0},{"OBJECT_NAME":"HULIANWANG DIGUI-44","OBJECT_ID":"2025-162E","EPOCH":"2026-03-15T07:24:19.685088","MEAN_MOTION":13.29341414,"ECCENTRICITY":6.845e-5,"INCLINATION":50.0003,"RA_OF_ASC_NODE":242.4116,"ARG_OF_PERICENTER":24.9845,"MEAN_ANOMALY":335.106,"EPHEMERIS_TYPE":0,"CLASSIFICATION_TYPE":"U","NORAD_CAT_ID":65047,"ELEMENT_SET_NO":999,"REV_AT_EPOCH":3088,"BSTAR":7.8771316e-5,"MEAN_MOTION_DOT":-8.7e-7,"MEAN_MOTION_DDOT":0},{"OBJECT_NAME":"HULIANWANG DIGUI-45","OBJECT_ID":"2025-162F","EPOCH":"2026-03-15T07:12:51.177312","MEAN_MOTION":13.2933376,"ECCENTRICITY":0.00010687,"INCLINATION":50.0032,"RA_OF_ASC_NODE":242.4261,"ARG_OF_PERICENTER":109.2964,"MEAN_ANOMALY":250.8024,"EPHEMERIS_TYPE":0,"CLASSIFICATION_TYPE":"U","NORAD_CAT_ID":65048,"ELEMENT_SET_NO":999,"REV_AT_EPOCH":3087,"BSTAR":8.409279e-5,"MEAN_MOTION_DOT":-8.5e-7,"MEAN_MOTION_DDOT":0},{"OBJECT_NAME":"HULIANWANG DIGUI-46","OBJECT_ID":"2025-162G","EPOCH":"2026-03-15T07:00:49.397760","MEAN_MOTION":13.29333672,"ECCENTRICITY":0.00010736,"INCLINATION":50.0051,"RA_OF_ASC_NODE":242.4167,"ARG_OF_PERICENTER":110.674,"MEAN_ANOMALY":249.4247,"EPHEMERIS_TYPE":0,"CLASSIFICATION_TYPE":"U","NORAD_CAT_ID":65049,"ELEMENT_SET_NO":999,"REV_AT_EPOCH":3087,"BSTAR":9.0227791e-5,"MEAN_MOTION_DOT":-8.2e-7,"MEAN_MOTION_DDOT":0},{"OBJECT_NAME":"HULIANWANG DIGUI-47","OBJECT_ID":"2025-162H","EPOCH":"2026-03-15T06:48:47.329632","MEAN_MOTION":13.29333618,"ECCENTRICITY":0.00010583,"INCLINATION":50.0016,"RA_OF_ASC_NODE":242.3085,"ARG_OF_PERICENTER":112.3109,"MEAN_ANOMALY":247.7875,"EPHEMERIS_TYPE":0,"CLASSIFICATION_TYPE":"U","NORAD_CAT_ID":65050,"ELEMENT_SET_NO":999,"REV_AT_EPOCH":3087,"BSTAR":0.00010542031,"MEAN_MOTION_DOT":-7.5e-7,"MEAN_MOTION_DDOT":0},{"OBJECT_NAME":"HULIANWANG DIGUI-48","OBJECT_ID":"2025-162J","EPOCH":"2026-03-15T06:36:47.848320","MEAN_MOTION":13.29333084,"ECCENTRICITY":0.00010353,"INCLINATION":50.0025,"RA_OF_ASC_NODE":242.2831,"ARG_OF_PERICENTER":111.2612,"MEAN_ANOMALY":248.8371,"EPHEMERIS_TYPE":0,"CLASSIFICATION_TYPE":"U","NORAD_CAT_ID":65051,"ELEMENT_SET_NO":999,"REV_AT_EPOCH":3087,"BSTAR":8.3222183e-5,"MEAN_MOTION_DOT":-8.5e-7,"MEAN_MOTION_DDOT":0}]
